{
  "links" : {
    "next" : "https://api.nasa.gov/neo/rest/v1/feed?start_date=1995-09-23&end_date=1995-09-23&detailed=true&api_key=t0TVs3DtDT2H8Oy2Zy8m2eVrNsAVKAexjcZXUckd",
    "prev" : "https://api.nasa.gov/neo/rest/v1/feed?start_date=1995-09-21&end_date=1995-09-21&detailed=true&api_key=t0TVs3DtDT2H8Oy2Zy8m2eVrNsAVKAexjcZXUckd",
    "self" : "https://api.nasa.gov/neo/rest/v1/feed?start_date=1995-09-22&end_date=1995-09-22&detailed=true&api_key=t0TVs3DtDT2H8Oy2Zy8m2eVrNsAVKAexjcZXUckd"
  },
  "element_count" : 3,
  "near_earth_objects" : {
    "1995-09-22" : [ {
      "links" : {
        "self" : "https://api.nasa.gov/neo/rest/v1/neo/3160737?api_key=t0TVs3DtDT2H8Oy2Zy8m2eVrNsAVKAexjcZXUckd"
      },
      "neo_reference_id" : "3160737",
      "name" : "(2003 SK84)",
      "nasa_jpl_url" : "http://ssd.jpl.nasa.gov/sbdb.cgi?sstr=3160737",
      "absolute_magnitude_h" : 21.2,
      "estimated_diameter" : {
        "kilometers" : {
          "estimated_diameter_min" : 0.1529519353,
          "estimated_diameter_max" : 0.3420109247
        },
        "meters" : {
          "estimated_diameter_min" : 152.9519353442,
          "estimated_diameter_max" : 342.0109247198
        },
        "miles" : {
          "estimated_diameter_min" : 0.095039897,
          "estimated_diameter_max" : 0.2125156703
        },
        "feet" : {
          "estimated_diameter_min" : 501.8108275547,
          "estimated_diameter_max" : 1122.0831222578
        }
      },
      "is_potentially_hazardous_asteroid" : true,
      "close_approach_data" : [ {
        "close_approach_date" : "1995-09-22",
        "epoch_date_close_approach" : 811753200000,
        "relative_velocity" : {
          "kilometers_per_second" : "33.0137345686",
          "kilometers_per_hour" : "118849.4444470831",
          "miles_per_hour" : "73848.4228565778"
        },
        "miss_distance" : {
          "astronomical" : "0.4287923704",
          "lunar" : "166.8002319336",
          "kilometers" : "64146424",
          "miles" : "39858740"
        },
        "orbiting_body" : "Earth"
      } ],
      "orbital_data" : {
        "orbit_id" : "18",
        "orbit_determination_date" : "2017-04-06 09:13:49",
        "orbit_uncertainty" : "0",
        "minimum_orbit_intersection" : ".0443814",
        "jupiter_tisserand_invariant" : "2.976",
        "epoch_osculation" : "2458000.5",
        "eccentricity" : ".7429197714072429",
        "semi_major_axis" : "2.535083408794546",
        "inclination" : "8.947767874862199",
        "ascending_node_longitude" : "344.1615922444419",
        "orbital_period" : "1474.303193711644",
        "perihelion_distance" : ".651719822234608",
        "perihelion_argument" : "118.2595343760776",
        "aphelion_distance" : "4.418446995354484",
        "perihelion_time" : "2457387.129860144127",
        "mean_anomaly" : "149.7746537414765",
        "mean_motion" : ".244183151427407",
        "equinox" : "J2000"
      }
    }, {
      "links" : {
        "self" : "https://api.nasa.gov/neo/rest/v1/neo/3684352?api_key=t0TVs3DtDT2H8Oy2Zy8m2eVrNsAVKAexjcZXUckd"
      },
      "neo_reference_id" : "3684352",
      "name" : "(2014 QT362)",
      "nasa_jpl_url" : "http://ssd.jpl.nasa.gov/sbdb.cgi?sstr=3684352",
      "absolute_magnitude_h" : 20.8,
      "estimated_diameter" : {
        "kilometers" : {
          "estimated_diameter_min" : 0.1838886721,
          "estimated_diameter_max" : 0.411187571
        },
        "meters" : {
          "estimated_diameter_min" : 183.8886720703,
          "estimated_diameter_max" : 411.1875710413
        },
        "miles" : {
          "estimated_diameter_min" : 0.1142630881,
          "estimated_diameter_max" : 0.2555000322
        },
        "feet" : {
          "estimated_diameter_min" : 603.309310875,
          "estimated_diameter_max" : 1349.040630575
        }
      },
      "is_potentially_hazardous_asteroid" : false,
      "close_approach_data" : [ {
        "close_approach_date" : "1995-09-22",
        "epoch_date_close_approach" : 811753200000,
        "relative_velocity" : {
          "kilometers_per_second" : "12.2330316667",
          "kilometers_per_hour" : "44038.9140002654",
          "miles_per_hour" : "27364.0685353316"
        },
        "miss_distance" : {
          "astronomical" : "0.2524465764",
          "lunar" : "98.201713562",
          "kilometers" : "37765468",
          "miles" : "23466374"
        },
        "orbiting_body" : "Earth"
      } ],
      "orbital_data" : {
        "orbit_id" : "14",
        "orbit_determination_date" : "2017-04-06 08:39:04",
        "orbit_uncertainty" : "5",
        "minimum_orbit_intersection" : ".214825",
        "jupiter_tisserand_invariant" : "3.914",
        "epoch_osculation" : "2458000.5",
        "eccentricity" : ".3980255376329458",
        "semi_major_axis" : "1.777807587614624",
        "inclination" : "22.95160410652685",
        "ascending_node_longitude" : "344.0968673856423",
        "orbital_period" : "865.8159059544905",
        "perihelion_distance" : "1.070194766746383",
        "perihelion_argument" : "64.44728661082161",
        "aphelion_distance" : "2.485420408482866",
        "perihelion_time" : "2457833.431866575612",
        "mean_anomaly" : "69.46572316256477",
        "mean_motion" : ".4157927771067335",
        "equinox" : "J2000"
      }
    }, {
      "links" : {
        "self" : "https://api.nasa.gov/neo/rest/v1/neo/3781651?api_key=t0TVs3DtDT2H8Oy2Zy8m2eVrNsAVKAexjcZXUckd"
      },
      "neo_reference_id" : "3781651",
      "name" : "(2017 SS10)",
      "nasa_jpl_url" : "http://ssd.jpl.nasa.gov/sbdb.cgi?sstr=3781651",
      "absolute_magnitude_h" : 25.187,
      "estimated_diameter" : {
        "kilometers" : {
          "estimated_diameter_min" : 0.024386809,
          "estimated_diameter_max" : 0.0545305626
        },
        "meters" : {
          "estimated_diameter_min" : 24.3868089865,
          "estimated_diameter_max" : 54.5305626481
        },
        "miles" : {
          "estimated_diameter_min" : 0.0151532559,
          "estimated_diameter_max" : 0.0338837102
        },
        "feet" : {
          "estimated_diameter_min" : 80.0092183953,
          "estimated_diameter_max" : 178.9060511585
        }
      },
      "is_potentially_hazardous_asteroid" : false,
      "close_approach_data" : [ {
        "close_approach_date" : "1995-09-22",
        "epoch_date_close_approach" : 811753200000,
        "relative_velocity" : {
          "kilometers_per_second" : "20.0603526459",
          "kilometers_per_hour" : "72217.2695251892",
          "miles_per_hour" : "44873.0028335822"
        },
        "miss_distance" : {
          "astronomical" : "0.3267124603",
          "lunar" : "127.0911483765",
          "kilometers" : "48875488",
          "miles" : "30369820"
        },
        "orbiting_body" : "Earth"
      } ],
      "orbital_data" : {
        "orbit_id" : "2",
        "orbit_determination_date" : "2017-09-28 06:49:17",
        "orbit_uncertainty" : "6",
        "minimum_orbit_intersection" : ".0240122",
        "jupiter_tisserand_invariant" : "6.825",
        "epoch_osculation" : "2458000.5",
        "eccentricity" : ".3260357937467516",
        "semi_major_axis" : ".8530614548537201",
        "inclination" : "18.67301195226717",
        "ascending_node_longitude" : "181.707208288901",
        "orbital_period" : "287.7854980609809",
        "perihelion_distance" : ".5749328863057288",
        "perihelion_argument" : "323.6011374134225",
        "aphelion_distance" : "1.131190023401711",
        "perihelion_time" : "2458114.157908812969",
        "mean_anomaly" : "217.8217198282911",
        "mean_motion" : "1.250931691921867",
        "equinox" : "J2000"
      }
    } ]
  }
}